*******************************************************************************
 Revised: June 21, 2016                 Mars                            499 / 4
 
 PHYSICAL DATA (updated 2019-Oct-29):
  Vol. mean radius (km) = 3389.92+-0.04   Density (g/cm^3)      =  3.933(5+-4)
  Mass x10^23 (kg)      =    6.4171       Flattening, f         =  1/169.779
  Volume (x10^10 km^3)  =   16.318        Equatorial radius (km)=  3396.19
  Sidereal rot. period  =   24.622962 hr  Sid. rot. rate, rad/s =  0.0000708822 
  Mean solar day (sol)  =   88775.24415 s Polar gravity m/s^2   =  3.758
  Core radius (km)      = ~1700           Equ. gravity  m/s^2   =  3.71
  Geometric Albedo      =    0.150                                              

  GM (km^3/s^2)         = 42828.375214    Mass ratio (Sun/Mars) = 3098703.59
  GM 1-sigma (km^3/s^2) = +- 0.00028      Mass of atmosphere, kg= ~ 2.5 x 10^16
  Mean temperature (K)  =  210            Atmos. pressure (bar) =    0.0056 
  Obliquity to orbit    =   25.19 deg     Max. angular diam.    =  17.9"
  Mean sidereal orb per =    1.88081578 y Visual mag. V(1,0)    =  -1.52
  Mean sidereal orb per =  686.98 d       Orbital speed,  km/s  =  24.13
  Hill's sphere rad. Rp =  319.8          Escape speed, km/s    =   5.027
                                 Perihelion  Aphelion    Mean
  Solar Constant (W/m^2)         717         493         589
  Maximum Planetary IR (W/m^2)   470         315         390
  Minimum Planetary IR (W/m^2)    30          30          30
*******************************************************************************
 
 
*******************************************************************************
Ephemeris / WWW_USER Wed Dec 11 11:05:22 2019 Pasadena, USA      / Horizons    
*******************************************************************************
Target body name: Mars (499)                      {source: mar097}
Center body name: Sun (10)                        {source: mar097}
Center-site name: BODY CENTER
*******************************************************************************
Start time      : A.D. 2019-Oct-15 00:00:00.0000 TDB
Stop  time      : A.D. 2030-Jul-11 00:00:00.0000 TDB
Step-size       : 1440 minutes
*******************************************************************************
Center geodetic : 0.00000000,0.00000000,0.0000000 {E-lon(deg),Lat(deg),Alt(km)}
Center cylindric: 0.00000000,0.00000000,0.0000000 {E-lon(deg),Dxy(km),Dz(km)}
Center radii    : 696000.0 x 696000.0 x 696000.0 k{Equator, meridian, pole}    
Output units    : KM-S                                                         
Output type     : GEOMETRIC cartesian states
Output format   : 2 (position and velocity)
Reference frame : ICRF/J2000.0                                                 
Coordinate systm: Ecliptic and Mean Equinox of Reference Epoch                 
*******************************************************************************
            JDTDB,            Calendar Date (TDB),                      X,                      Y,                      Z,                     VX,                     VY,                     VZ,
**************************************************************************************************************************************************************************************************
$$SOE
2461015.500000000, A.D. 2025-Dec-06 00:00:00.0000, -5.064633101641893E+06, -2.180166088758520E+08, -4.444508576278716E+06,  2.513945380209428E+01,  1.520994112343790E+00, -5.845887620336903E-01,
2461016.500000000, A.D. 2025-Dec-07 00:00:00.0000, -2.892376794035125E+06, -2.178747821463909E+08, -4.494803916725010E+06,  2.514385835998944E+01,  1.762105643624279E+00, -5.796439372496536E-01,
2461017.500000000, A.D. 2025-Dec-08 00:00:00.0000, -7.198434577614479E+05, -2.177121046557868E+08, -4.544669092920452E+06,  2.514586445181846E+01,  2.003646577048247E+00, -5.746312829833788E-01,
2461018.500000000, A.D. 2025-Dec-09 00:00:00.0000,  1.452759156283769E+06, -2.175285403656998E+08, -4.594098254734382E+06,  2.514545996644355E+01,  2.245592250526776E+00, -5.695510249112996E-01,
2461019.500000000, A.D. 2025-Dec-10 00:00:00.0000,  3.625222260654936E+06, -2.173240553804799E+08, -4.643085571523681E+06,  2.514263305642508E+01,  2.487917723034061E+00, -5.644034062955441E-01,
2461020.500000000, A.D. 2025-Dec-11 00:00:00.0000,  5.797336053286470E+06, -2.170986179720142E+08, -4.691625233171999E+06,  2.513737212289459E+01,  2.730597775507357E+00, -5.591886774169518E-01,
2461021.500000000, A.D. 2025-Dec-12 00:00:00.0000,  7.968889740091393E+06, -2.168521986044799E+08, -4.739711451182678E+06,  2.512966580842474E+01,  2.973606904801645E+00, -5.539070895718150E-01,
2461022.500000000, A.D. 2025-Dec-13 00:00:00.0000,  1.013967155811693E+07, -2.165847699591458E+08, -4.787338459788769E+06,  2.511950301421994E+01,  3.216919317031809E+00, -5.485589010184003E-01,
2461023.500000000, A.D. 2025-Dec-14 00:00:00.0000,  1.230946879916179E+07, -2.162963069590524E+08, -4.834500517028987E+06,  2.510687292503295E+01,  3.460508923938892E+00, -5.431443864451435E-01,
2461024.500000000, A.D. 2025-Dec-15 00:00:00.0000,  1.447806783394114E+07, -2.159867867933292E+08, -4.881191905810863E+06,  2.509176502262488E+01,  3.704349342920977E+00, -5.376638407770556E-01,
2461025.500000000, A.D. 2025-Dec-16 00:00:00.0000,  1.664525413697141E+07, -2.156561889411524E+08, -4.927406935036510E+06,  2.507416908935110E+01,  3.948413907791274E+00, -5.321175775238843E-01,
2461026.500000000, A.D. 2025-Dec-17 00:00:00.0000,  1.881081231217320E+07, -2.153044951955220E+08, -4.973139940800592E+06,  2.505407521065345E+01,  4.192675690958095E+00, -5.265059253955273E-01,
2461027.500000000, A.D. 2025-Dec-18 00:00:00.0000,  2.097452611898329E+07, -2.149316896869178E+08, -5.018385287570506E+06,  2.503147377580511E+01,  4.437107518205993E+00, -5.208292239781871E-01,
2461028.500000000, A.D. 2025-Dec-19 00:00:00.0000,  2.313617849884290E+07, -2.145377589066983E+08, -5.063137369278803E+06,  2.500635547651489E+01,  4.681681957506310E+00, -5.150878203016664E-01,
2461029.500000000, A.D. 2025-Dec-20 00:00:00.0000,  2.529555160220934E+07, -2.141226917301183E+08, -5.107390610387504E+06,  2.497871131051740E+01,  4.926371297457927E+00, -5.092820694094546E-01,
2461030.500000000, A.D. 2025-Dec-21 00:00:00.0000,  2.745242681631589E+07, -2.136864794390321E+08, -5.151139467033431E+06,  2.494853259231641E+01,  5.171147544314899E+00, -5.034123375398665E-01,
2461031.500000000, A.D. 2025-Dec-22 00:00:00.0000,  2.960658479366299E+07, -2.132291157444220E+08, -5.194378428258166E+06,  2.491581096923675E+01,  5.415982437085874E+00, -4.974790062128440E-01,
2461032.500000000, A.D. 2025-Dec-23 00:00:00.0000,  3.175780548103957E+07, -2.127505968087366E+08, -5.237102017231643E+06,  2.488053844054949E+01,  5.660847462132196E+00, -4.914824773550133E-01,
2461033.500000000, A.D. 2025-Dec-24 00:00:00.0000,  3.390586814899128E+07, -2.122509212678187E+08, -5.279304792418018E+06,  2.484270736937525E+01,  5.905713861632472E+00, -4.854231752989266E-01,
2461034.500000000, A.D. 2025-Dec-25 00:00:00.0000,  3.605055142186301E+07, -2.117300902522753E+08, -5.320981348729253E+06,  2.480231047656648E+01,  6.150552641725743E+00, -4.793015401917504E-01,
2461035.500000000, A.D. 2025-Dec-26 00:00:00.0000,  3.819163330852515E+07, -2.111881074084276E+08, -5.362126318724275E+06,  2.475934082563933E+01,  6.395334577453341E+00, -4.731180173309999E-01,
2461036.500000000, A.D. 2025-Dec-27 00:00:00.0000,  4.032889123370360E+07, -2.106249789190702E+08, -5.402734373836458E+06,  2.471379182422837E+01,  6.640030208414847E+00, -4.668730552854758E-01,
2461037.500000000, A.D. 2025-Dec-28 00:00:00.0000,  4.246210206977712E+07, -2.100407135240206E+08, -5.442800225573406E+06,  2.466565724662690E+01,  6.884609831810663E+00, -4.605671145762242E-01,
2461038.500000000, A.D. 2025-Dec-29 00:00:00.0000,  4.459104216905283E+07, -2.094353225401998E+08, -5.482318626680806E+06,  2.461493125456347E+01,  7.129043500173659E+00, -4.542006753287220E-01,
2461039.500000000, A.D. 2025-Dec-30 00:00:00.0000,  4.671548739668584E+07, -2.088088198811105E+08, -5.521284372335747E+06,  2.456160840479065E+01,  7.373301028371085E+00, -4.477742380728036E-01,
2461040.500000000, A.D. 2025-Dec-31 00:00:00.0000,  4.883521316433313E+07, -2.081612220758440E+08, -5.559692301420435E+06,  2.450568365252459E+01,  7.617352013363371E+00, -4.412883215195356E-01,
2461041.500000000, A.D. 2026-Jan-01 00:00:00.0000,  5.094999446439978E+07, -2.074925482877533E+08, -5.597537297823280E+06,  2.444715235654270E+01,  7.861165858501941E+00, -4.347434602833449E-01,
2461042.500000000, A.D. 2026-Jan-02 00:00:00.0000,  5.305960590466678E+07, -2.068028203327107E+08, -5.634814291669607E+06,  2.438601027914353E+01,  8.104711782026603E+00, -4.281402008940161E-01,
2461043.500000000, A.D. 2026-Jan-03 00:00:00.0000,  5.516382174330118E+07, -2.060920626967773E+08, -5.671518260473028E+06,  2.432225358172714E+01,  8.347958802066222E+00, -4.214790978625387E-01,
2461044.500000000, A.D. 2026-Jan-04 00:00:00.0000,  5.726241592446828E+07, -2.053603025532833E+08, -5.707644230311200E+06,  2.425587882790836E+01,  8.590875722837808E+00, -4.147607141533296E-01,
2461045.500000000, A.D. 2026-Jan-05 00:00:00.0000,  5.935516211465887E+07, -2.046075697794692E+08, -5.743187277093485E+06,  2.418688299734203E+01,  8.833431142681633E+00, -4.079856253925866E-01,
2461046.500000000, A.D. 2026-Jan-06 00:00:00.0000,  6.144183373958265E+07, -2.038338969727576E+08, -5.778142527862236E+06,  2.411526350513483E+01,  9.075593472412566E+00, -4.011544255416286E-01,
2461047.500000000, A.D. 2026-Jan-07 00:00:00.0000,  6.352220402145302E+07, -2.030393194664948E+08, -5.812505162042469E+06,  2.404101821872728E+01,  9.317330947738478E+00, -3.942677315186156E-01,
